FLOCK 4H-34             
1 66737U 25276BZ  26204.63884845  .00006216  00000+0  28402-3 0  9994
2 66737  97.4223 277.9260 0003402 149.4955 210.6479 15.20919329 35229
FLOCK 4H-35             
1 66738U 25276CA  26204.48239148  .00006458  00000+0  29404-3 0  9999
2 66738  97.4182 277.7067 0003172 135.8680 224.2809 15.21028481 35246
FLOCK 4H-36             
1 66739U 25276CB  26204.85118567  .00006630  00000+0  30374-3 0  9992
2 66739  97.4230 278.1276 0003262 158.3639 201.7735 15.20805943 36000
