{"fetched_at":"2026-07-24T07:06:09.639Z","source":"https://celestrak.org/NORAD/elements/gp.php?GROUP=planet&FORMAT=JSON","constellation":"superdove","records":[{"OBJECT_NAME":"FLOCK 4H-34","OBJECT_ID":"2025-276BZ","EPOCH":"2026-07-23T15:19:56.506080","CLASSIFICATION_TYPE":"U","MEAN_MOTION":15.20919329,"ECCENTRICITY":0.0003402,"INCLINATION":97.4223,"RA_OF_ASC_NODE":277.926,"ARG_OF_PERICENTER":149.4955,"MEAN_ANOMALY":210.6479,"EPHEMERIS_TYPE":0,"NORAD_CAT_ID":66737,"ELEMENT_SET_NO":999,"REV_AT_EPOCH":3522,"BSTAR":0.00028402,"MEAN_MOTION_DOT":0.00006216,"MEAN_MOTION_DDOT":0},{"OBJECT_NAME":"FLOCK 4H-35","OBJECT_ID":"2025-276CA","EPOCH":"2026-07-23T11:34:38.623872","CLASSIFICATION_TYPE":"U","MEAN_MOTION":15.21028481,"ECCENTRICITY":0.0003172,"INCLINATION":97.4182,"RA_OF_ASC_NODE":277.7067,"ARG_OF_PERICENTER":135.868,"MEAN_ANOMALY":224.2809,"EPHEMERIS_TYPE":0,"NORAD_CAT_ID":66738,"ELEMENT_SET_NO":999,"REV_AT_EPOCH":3524,"BSTAR":0.00029404,"MEAN_MOTION_DOT":0.00006458,"MEAN_MOTION_DDOT":0},{"OBJECT_NAME":"FLOCK 4H-36","OBJECT_ID":"2025-276CB","EPOCH":"2026-07-23T20:25:42.441888","CLASSIFICATION_TYPE":"U","MEAN_MOTION":15.20805943,"ECCENTRICITY":0.0003262,"INCLINATION":97.423,"RA_OF_ASC_NODE":278.1276,"ARG_OF_PERICENTER":158.3639,"MEAN_ANOMALY":201.7735,"EPHEMERIS_TYPE":0,"NORAD_CAT_ID":66739,"ELEMENT_SET_NO":999,"REV_AT_EPOCH":3600,"BSTAR":0.00030374,"MEAN_MOTION_DOT":0.0000663,"MEAN_MOTION_DDOT":0}]}
